[{"OBJECT_NAME":"STARLINK-35058","OBJECT_ID":"2025-191R","EPOCH":"2026-03-09T14:13:33.110112","MEAN_MOTION":15.05670963,"ECCENTRICITY":0.0001639,"INCLINATION":97.603,"RA_OF_ASC_NODE":301.4104,"ARG_OF_PERICENTER":72.1467,"MEAN_ANOMALY":287.9938,"EPHEMERIS_TYPE":0,"CLASSIFICATION_TYPE":"U","NORAD_CAT_ID":65394,"ELEMENT_SET_NO":999,"REV_AT_EPOCH":3025,"BSTAR":0.00052604,"MEAN_MOTION_DOT":7.542e-5,"MEAN_MOTION_DDOT":0},{"OBJECT_NAME":"COSMOS 886 DEB","OBJECT_ID":"1976-126BP","EPOCH":"2026-03-09T09:25:45.501600","MEAN_MOTION":13.48223291,"ECCENTRICITY":0.07109258,"INCLINATION":65.7793,"RA_OF_ASC_NODE":49.267,"ARG_OF_PERICENTER":88.0279,"MEAN_ANOMALY":57.007,"EPHEMERIS_TYPE":0,"CLASSIFICATION_TYPE":"U","NORAD_CAT_ID":14502,"ELEMENT_SET_NO":999,"REV_AT_EPOCH":14461,"BSTAR":0.00098756345,"MEAN_MOTION_DOT":2.959e-5,"MEAN_MOTION_DDOT":0}]
